NORAD_CAT_ID,OBJECT_NAME,OBJECT_TYPE,EPOCH,MEAN_MOTION,ECCENTRICITY,INCLINATION,RA_OF_ASC_NODE,ARG_OF_PERICENTER,MEAN_ANOMALY,BSTAR,MEAN_MOTION_DOT,MEAN_MOTION_DDOT,TLE_LINE0,TLE_LINE1,TLE_LINE2,SEMIMAJOR_AXIS,PERIOD,APOGEE,PERIGEE,DECAYED
52466.0,STARLINK-3840,PAYLOAD,2022-07-21 22:00:00,15.08806522,0.0001573,53.2129,255.2356,50.445,188.6994,0.00085599,0.00013349,0.0,0 STARLINK-3840,1 52466U 22049R   22202.91667824  .00013349  00000-0  85599-3 0  9990,2 52466  53.2129 255.2356 0001573  50.4450 188.6994 15.08806522  1305,6917.983,95.44,540.936,538.76,0.0
52466.0,STARLINK-3840,PAYLOAD,2022-07-22 06:00:00,15.08833912,0.0001631,53.2137,253.7396,52.4278,198.2733,-0.0011305,-0.00018232,0.0,0 STARLINK-3840,1 52466U 22049R   22203.25001157 -.00018232  00000-0 -11305-2 0  9990,2 52466  53.2137 253.7396 0001631  52.4278 198.2733 15.08833912  1307,6917.899,95.438,540.8919999999998,538.636,0.0
52466.0,STARLINK-3840,PAYLOAD,2022-07-22 22:00:00,15.08827999,0.0001651,53.2139,250.7463,49.5623,224.3241,0.0013472,0.00021211,0.0,0 STARLINK-3840,1 52466U 22049R   22203.91667824  .00021211  00000-0  13472-2 0  9998,2 52466  53.2139 250.7463 0001651  49.5623 224.3241 15.08827999  1307,6917.917,95.438,540.924,538.64,0.0
52466.0,STARLINK-3840,PAYLOAD,2022-07-23 14:00:01,15.08825278,0.0001859,53.2138,247.7551,45.2471,251.8951,0.0029133,0.00046364,0.0,0 STARLINK-3840,1 52466U 22049R   22204.58335648  .00046364  00000-0  29133-2 0  9995,2 52466  53.2138 247.7551 0001859  45.2471 251.8951 15.08825278  1305,6917.925,95.438,541.076,538.504,0.0
52466.0,STARLINK-3840,PAYLOAD,2022-07-23 22:00:00,15.08837997,0.000171,53.2141,246.2569,50.1122,258.575,0.0017925,0.00028353,0.0,0 STARLINK-3840,1 52466U 22049R   22204.91667824  .00028353  00000-0  17925-2 0  9990,2 52466  53.2141 246.2569 0001710  50.1122 258.5750 15.08837997  1308,6917.887,95.438,540.934,538.569,0.0
52466.0,STARLINK-3840,PAYLOAD,2022-07-24 14:00:01,15.08852865,0.000186,53.2139,243.2657,44.0764,287.8308,-4.0399e-05,-9.31e-06,0.0,0 STARLINK-3840,1 52466U 22049R   22205.58334491 -.00000931  00000-0 -40399-4 0  9992,2 52466  53.2139 243.2657 0001860  44.0764 287.8308 15.08852865 12510,6917.840999999999,95.437,540.993,538.419,0.0
52466.0,STARLINK-3840,PAYLOAD,2022-07-24 22:00:00,15.08816242,0.0001641,53.2141,241.7675,48.2412,295.2887,0.0020988,0.00033251,0.0,0 STARLINK-3840,1 52466U 22049R   22205.91667824  .00033251  00000-0  20988-2 0  9997,2 52466  53.2141 241.7675 0001641  48.2412 295.2887 15.08816242  1308,6917.953,95.439,540.953,538.683,0.0
52466.0,STARLINK-3840,PAYLOAD,2022-07-25 14:00:01,15.08825365,0.0001828,53.2137,238.7763,42.5633,324.1418,0.0018826,0.00029789,0.0,0 STARLINK-3840,1 52466U 22049R   22206.58334491  .00029789  00000-0  18826-2 0  9991,2 52466  53.2137 238.7763 0001828  42.5633 324.1418 15.08825365  1304,6917.925,95.438,541.055,538.526,0.0
52466.0,STARLINK-3840,PAYLOAD,2022-07-25 22:00:00,15.08818752,0.0001629,53.2137,237.2782,48.9162,329.3884,0.0023829,0.00037818,0.0,0 STARLINK-3840,1 52466U 22049R   22206.91667824  .00037818  00000-0  23829-2 0  9998,2 52466  53.2137 237.2782 0001629  48.9162 329.3884 15.08818752  1301,6917.945,95.439,540.937,538.683,0.0
52466.0,STARLINK-3840,PAYLOAD,2022-07-26 06:00:00,15.08858756,0.0001730999999999,53.2137,235.7828,48.0813,341.805,-0.0020708,-0.00033111,0.0,0 STARLINK-3840,1 52466U 22049R   22207.25001157 -.00033111  00000-0 -20708-2 0  9994,2 52466  53.2137 235.7828 0001731  48.0813 341.8050 15.08858756 12767,6917.823,95.436,540.886,538.491,0.0
52466.0,STARLINK-3840,PAYLOAD,2022-07-26 14:00:01,15.08833377,0.0001825,53.2131,234.287,43.1503,358.3407,0.0013682,0.0002154999999999,0.0,0 STARLINK-3840,1 52466U 22049R   22207.58334491  .00021550  00000-0  13682-2 0  9995,2 52466  53.2131 234.2870 0001825  43.1503 358.3407 15.08833377  1307,6917.901,95.438,541.028,538.503,0.0
52466.0,STARLINK-3840,PAYLOAD,2022-07-26 22:00:00,15.08821523,0.0001629999999999,53.213,232.7889,49.8947,3.2026,0.0025553,0.00040594,0.0,0 STARLINK-3840,1 52466U 22049R   22207.91667824  .00040594  00000-0  25553-2 0  9990,2 52466  53.2130 232.7889 0001630  49.8947   3.2026 15.08821523  1301,6917.937,95.439,540.929,538.674,0.0
52466.0,STARLINK-3840,PAYLOAD,2022-07-27 14:00:01,15.08839812,0.0001848,53.2124,229.7977,44.2159,32.0746,0.00089708,0.00014018,0.0,0 STARLINK-3840,1 52466U 22049R   22208.58334491  .00014018  00000-0  89708-3 0  9990,2 52466  53.2124 229.7977 0001848  44.2159  32.0746 15.08839812  1302,6917.880999999999,95.438,541.024,538.4680000000002,0.0
52466.0,STARLINK-3840,PAYLOAD,2022-07-27 16:00:00,15.08859328,0.0001818,53.2123,229.423,46.2531,122.9323,-0.0017195999999999,-0.00027566,0.0,0 STARLINK-3840,1 52466U 22049R   22208.66667824 -.00027566  00000-0 -17196-2 0  9993,2 52466  53.2123 229.4230 0001818  46.2531 122.9323 15.08859328 12972,6917.821,95.436,540.944,538.429,0.0
52466.0,STARLINK-3840,PAYLOAD,2022-07-27 22:00:00,15.08824542,0.0001671,53.2123,228.2995,50.9314,36.9693,0.0025322,0.00040225,0.0,0 STARLINK-3840,1 52466U 22049R   22208.91667824  .00040225  00000-0  25322-2 0  9996,2 52466  53.2123 228.2995 0001671  50.9314  36.9693 15.08824542  1304,6917.928000000001,95.439,540.9490000000002,538.637,0.0
52466.0,STARLINK-3840,PAYLOAD,2022-07-28 08:00:01,15.08848478,0.0001872,53.2122,226.4305,47.9072,144.4916,-0.00071497,-0.00011652,0.0,0 STARLINK-3840,1 52466U 22049R   22209.33334491 -.00011652  00000-0 -71497-3 0  9993,2 52466  53.2122 226.4305 0001872  47.9072 144.4916 15.08848478 13072,6917.854,95.437,541.014,538.424,0.0
52466.0,STARLINK-3840,PAYLOAD,2022-07-28 14:00:01,15.08856368,0.0001881,53.2119,225.308,44.1706,66.92699999999999,-0.0014832,-0.00023827,0.0,0 STARLINK-3840,1 52466U 22049R   22209.58334491 -.00023827  00000-0 -14832-2 0  9996,2 52466  53.2119 225.3080 0001881  44.1706  66.9270 15.08856368  1300,6917.83,95.437,540.997,538.394,0.0
52466.0,STARLINK-3840,PAYLOAD,2022-07-28 22:00:00,15.08806789,0.0001663,53.2119,223.8098,48.9443,73.7686,0.0018981999999999,0.00030024,0.0,0 STARLINK-3840,1 52466U 22049R   22209.91667824  .00030024  00000-0  18982-2 0  9997,2 52466  53.2119 223.8098 0001663  48.9443  73.7686 15.08806789  1309,6917.982,95.44,540.997,538.696,0.0
52466.0,STARLINK-3840,PAYLOAD,2022-07-29 14:00:01,15.08826166,0.0001911,53.2119,220.8183,43.153,102.702,-6.5145e-05,-1.324e-05,0.0,0 STARLINK-3840,1 52466U 22049R   22210.58334491 -.00001324  00000-0 -65145-4 0  9991,2 52466  53.2119 220.8183 0001911  43.1530 102.7020 15.08826166  1307,6917.9230000000025,95.438,541.11,538.466,0.0
52466.0,STARLINK-3840,PAYLOAD,2022-07-29 22:00:00,15.08806367,0.0001768,53.2121,219.3201,48.9785,108.4616,0.0023124,0.00036672,0.0,0 STARLINK-3840,1 52466U 22049R   22210.91667824  .00036672  00000-0  23124-2 0  9998,2 52466  53.2121 219.3201 0001768  48.9785 108.4616 15.08806367  1304,6917.983,95.44,541.071,538.625,0.0
52466.0,STARLINK-3840,PAYLOAD,2022-07-30 14:00:01,15.08835177,0.0002015,53.2124,216.3286,44.188,136.4004,-0.0006085,-9.958e-05,0.0,0 STARLINK-3840,1 52466U 22049R   22211.58334491 -.00009958  00000-0 -60850-3 0  9990,2 52466  53.2124 216.3286 0002015  44.1880 136.4004 15.08835177  1300,6917.895,95.438,541.154,538.366,0.0
52466.0,STARLINK-3840,PAYLOAD,2022-07-30 22:00:00,15.08812883,0.0001884,53.2127,214.8305,49.7213,142.4583,0.0022313,0.00035376,0.0,0 STARLINK-3840,1 52466U 22049R   22211.91667824  .00035376  00000-0  22313-2 0  9998,2 52466  53.2127 214.8305 0001884  49.7213 142.4583 15.08812883 13460,6917.9630000000025,95.439,541.132,538.525,0.0
52466.0,STARLINK-3840,PAYLOAD,2022-07-31 14:00:01,15.08844933,0.00021,53.2131,211.83900000000003,45.4876,169.8528,-0.0012144999999999,-0.00019568,0.0,0 STARLINK-3840,1 52466U 22049R   22212.58334491 -.00019568  00000-0 -12145-2 0  9992,2 52466  53.2131 211.8390 0002100  45.4876 169.8528 15.08844933 13571,6917.865,95.437,541.183,538.278,0.0
52466.0,STARLINK-3840,PAYLOAD,2022-07-31 22:00:00,15.08818906,0.0001971,53.2135,210.3409,51.0191,175.9189,0.0021254,0.00033681,0.0,0 STARLINK-3840,1 52466U 22049R   22212.91667824  .00033681  00000-0  21254-2 0  9999,2 52466  53.2135 210.3409 0001971  51.0191 175.9189 15.08818906  1308,6917.945,95.439,541.173,538.446,0.0
52466.0,STARLINK-3840,PAYLOAD,2022-08-01 06:00:00,15.08842844,0.0002153,53.2137,208.8461,48.029,190.4977,-0.00098027,-0.00015857,0.0,0 STARLINK-3840,1 52466U 22049R   22213.25001157 -.00015857  00000-0 -98027-3 0  9998,2 52466  53.2137 208.8461 0002153  48.0290 190.4977 15.08842844 13677,6917.871999999999,95.437,541.226,538.247,0.0
52466.0,STARLINK-3840,PAYLOAD,2022-08-01 14:00:01,15.08854875,0.0002147,53.2138,207.3494,47.0222,203.0915,-0.0017159,-0.00027505,0.0,0 STARLINK-3840,1 52466U 22049R   22213.58334491 -.00027505  00000-0 -17159-2 0  9993,2 52466  53.2138 207.3494 0002147  47.0222 203.0915 15.08854875  1302,6917.835,95.437,541.185,538.215,0.0
52466.0,STARLINK-3840,PAYLOAD,2022-08-01 22:00:00,15.08825646,0.0002024,53.2141,205.8515,52.6552,209.0625,0.0021119,0.0003347,0.0,0 STARLINK-3840,1 52466U 22049R   22213.91667824  .00033470  00000-0  21119-2 0  9996,2 52466  53.2141 205.8515 0002024  52.6552 209.0625 15.08825646  1303,6917.924,95.438,541.189,538.389,0.0
52466.0,STARLINK-3840,PAYLOAD,2022-08-02 14:00:01,15.08861364,0.000216,53.214,202.86,48.5578,236.3485,-0.002169,-0.00034664,0.0,0 STARLINK-3840,1 52466U 22049R   22214.58334491 -.00034664  00000-0 -21690-2 0  9993,2 52466  53.2140 202.8600 0002160  48.5578 236.3485 15.08861364 13876,6917.815,95.436,541.174,538.186,0.0
52466.0,STARLINK-3840,PAYLOAD,2022-08-03 06:00:00,15.08849408,0.0002222,53.2141,199.8677,50.8026,257.3167,-0.00065733,-0.00010738,0.0,0 STARLINK-3840,1 52466U 22049R   22215.25001157 -.00010738  00000-0 -65733-3 0  9991,2 52466  53.2141 199.8677 0002222  50.8026 257.3167 15.08849408 13975,6917.852,95.437,541.254,538.179,0.0
